STARLINK-35475          
1 65865U 25223M   25299.75949424  .00055876  00000+0  10049-2 0  9991
2 65865  53.1588 198.8661 0001220  79.2924 280.8222 15.49326262  3668
STARLINK-35312          
1 65866U 25223N   25299.75915249  .00161288  00000+0  28438-2 0  9996
2 65866  53.1584 198.8639 0001639 115.3021 244.8158 15.49356825  3660
STARLINK-35456          
1 65867U 25223P   25299.75880566  .00096690  00000+0  17229-2 0  9990
2 65867  53.1584 198.8608 0001178 100.3563 259.7579 15.49345830  3666
STARLINK-35450          
1 65868U 25223Q   25299.83334491 -.02562269  00000+0 -67911-1 0  9997
2 65868  53.1590 198.5512 0000914  81.0563 311.8147 15.41671407  4955
STARLINK-35441          
1 65869U 25223R   25299.83334491  .00026552  00000+0  67253-3 0  9995
2 65869  53.1594 198.5986 0001328  91.6105 276.7055 15.39570920  4956
STARLINK-35433          
1 65870U 25223S   25299.75792249 -.00076683  00000+0 -14271-2 0  9990
2 65870  53.1585 198.8547 0003067 293.9986  66.0701 15.48435224  3673
STARLINK-35465          
1 65871U 25223T   25299.83334491 -.02074605  00000+0 -50510-1 0  9990
2 65871  53.1592 198.5112 0001041 109.5515 302.8200 15.43982239  4952
STARLINK-34108          
1 65872U 25223U   25299.75674598  .00072465  00000+0  12979-2 0  9993
2 65872  53.1589 198.8470 0001108  94.0171 266.0965 15.49331346  3668
STARLINK-35423          
1 65873U 25223V   25299.75640144  .00075945  00000+0  13590-2 0  9990
2 65873  53.1591 198.8442 0001158  87.3237 272.7905 15.49336429  3669
STARLINK-35425          
1 65874U 25223W   25299.75708833  .00071524  00000+0  12811-2 0  9995
2 65874  53.1590 198.8490 0001140  96.4296 263.6843 15.49335743  3667
STARLINK-34688          
1 65875U 25223X   25299.69154971  .00097231  00000+0  17326-2 0  9996
2 65875  53.1585 199.1510 0000954 109.4617 250.6495 15.49341035  3652
STARLINK-34438          
1 65876U 25223Y   25299.75571481  .00068374  00000+0  12256-2 0  9996
2 65876  53.1588 198.8405 0001177  96.1932 263.9211 15.49334592  3669
