CCSDS_OMM_VERS = 2.0
CREATION_DATE  = 
ORIGINATOR     = 

OBJECT_NAME    = STARLINK-35475
OBJECT_ID      = 2025-223M
CENTER_NAME    = EARTH
REF_FRAME      = TEME
TIME_SYSTEM    = UTC
MEAN_ELEMENT_THEORY = SGP/SGP4

EPOCH          = 2025-10-26T18:13:40.302336
MEAN_MOTION    = 15.49326262
ECCENTRICITY   = .000122
INCLINATION    = 53.1588
RA_OF_ASC_NODE = 198.8661
ARG_OF_PERICENTER = 79.2924
MEAN_ANOMALY   = 280.8222

EPHEMERIS_TYPE = 0
CLASSIFICATION_TYPE = U
NORAD_CAT_ID   = 65865
ELEMENT_SET_NO = 999
REV_AT_EPOCH   = 366
BSTAR          = .10049E-2
MEAN_MOTION_DOT = .55876E-3
MEAN_MOTION_DDOT = 0

CCSDS_OMM_VERS = 2.0
CREATION_DATE  = 
ORIGINATOR     = 

OBJECT_NAME    = STARLINK-35312
OBJECT_ID      = 2025-223N
CENTER_NAME    = EARTH
REF_FRAME      = TEME
TIME_SYSTEM    = UTC
MEAN_ELEMENT_THEORY = SGP/SGP4

EPOCH          = 2025-10-26T18:13:10.775136
MEAN_MOTION    = 15.49356825
ECCENTRICITY   = .0001639
INCLINATION    = 53.1584
RA_OF_ASC_NODE = 198.8639
ARG_OF_PERICENTER = 115.3021
MEAN_ANOMALY   = 244.8158

EPHEMERIS_TYPE = 0
CLASSIFICATION_TYPE = U
NORAD_CAT_ID   = 65866
ELEMENT_SET_NO = 999
REV_AT_EPOCH   = 366
BSTAR          = .28438E-2
MEAN_MOTION_DOT = .161288E-2
MEAN_MOTION_DDOT = 0

CCSDS_OMM_VERS = 2.0
CREATION_DATE  = 
ORIGINATOR     = 

OBJECT_NAME    = STARLINK-35456
OBJECT_ID      = 2025-223P
CENTER_NAME    = EARTH
REF_FRAME      = TEME
TIME_SYSTEM    = UTC
MEAN_ELEMENT_THEORY = SGP/SGP4

EPOCH          = 2025-10-26T18:12:40.809024
MEAN_MOTION    = 15.49345830
ECCENTRICITY   = .0001178
INCLINATION    = 53.1584
RA_OF_ASC_NODE = 198.8608
ARG_OF_PERICENTER = 100.3563
MEAN_ANOMALY   = 259.7579

EPHEMERIS_TYPE = 0
CLASSIFICATION_TYPE = U
NORAD_CAT_ID   = 65867
ELEMENT_SET_NO = 999
REV_AT_EPOCH   = 366
BSTAR          = .17229E-2
MEAN_MOTION_DOT = .9669E-3
MEAN_MOTION_DDOT = 0

CCSDS_OMM_VERS = 2.0
CREATION_DATE  = 
ORIGINATOR     = 

OBJECT_NAME    = STARLINK-35450
OBJECT_ID      = 2025-223Q
CENTER_NAME    = EARTH
REF_FRAME      = TEME
TIME_SYSTEM    = UTC
MEAN_ELEMENT_THEORY = SGP/SGP4

EPOCH          = 2025-10-26T20:00:01.000224
MEAN_MOTION    = 15.41671407
ECCENTRICITY   = .0000914
INCLINATION    = 53.1590
RA_OF_ASC_NODE = 198.5512
ARG_OF_PERICENTER = 81.0563
MEAN_ANOMALY   = 311.8147

EPHEMERIS_TYPE = 0
CLASSIFICATION_TYPE = U
NORAD_CAT_ID   = 65868
ELEMENT_SET_NO = 999
REV_AT_EPOCH   = 495
BSTAR          = -.67911E-1
MEAN_MOTION_DOT = -.2562269E-1
MEAN_MOTION_DDOT = 0

CCSDS_OMM_VERS = 2.0
CREATION_DATE  = 
ORIGINATOR     = 

OBJECT_NAME    = STARLINK-35441
OBJECT_ID      = 2025-223R
CENTER_NAME    = EARTH
REF_FRAME      = TEME
TIME_SYSTEM    = UTC
MEAN_ELEMENT_THEORY = SGP/SGP4

EPOCH          = 2025-10-26T20:00:01.000224
MEAN_MOTION    = 15.39570920
ECCENTRICITY   = .0001328
INCLINATION    = 53.1594
RA_OF_ASC_NODE = 198.5986
ARG_OF_PERICENTER = 91.6105
MEAN_ANOMALY   = 276.7055

EPHEMERIS_TYPE = 0
CLASSIFICATION_TYPE = U
NORAD_CAT_ID   = 65869
ELEMENT_SET_NO = 999
REV_AT_EPOCH   = 495
BSTAR          = .67253E-3
MEAN_MOTION_DOT = .26552E-3
MEAN_MOTION_DDOT = 0

CCSDS_OMM_VERS = 2.0
CREATION_DATE  = 
ORIGINATOR     = 

OBJECT_NAME    = STARLINK-35433
OBJECT_ID      = 2025-223S
CENTER_NAME    = EARTH
REF_FRAME      = TEME
TIME_SYSTEM    = UTC
MEAN_ELEMENT_THEORY = SGP/SGP4

EPOCH          = 2025-10-26T18:11:24.503136
MEAN_MOTION    = 15.48435224
ECCENTRICITY   = .0003067
INCLINATION    = 53.1585
RA_OF_ASC_NODE = 198.8547
ARG_OF_PERICENTER = 293.9986
MEAN_ANOMALY   = 66.0701

EPHEMERIS_TYPE = 0
CLASSIFICATION_TYPE = U
NORAD_CAT_ID   = 65870
ELEMENT_SET_NO = 999
REV_AT_EPOCH   = 367
BSTAR          = -.14271E-2
MEAN_MOTION_DOT = -.76683E-3
MEAN_MOTION_DDOT = 0

CCSDS_OMM_VERS = 2.0
CREATION_DATE  = 
ORIGINATOR     = 

OBJECT_NAME    = STARLINK-35465
OBJECT_ID      = 2025-223T
CENTER_NAME    = EARTH
REF_FRAME      = TEME
TIME_SYSTEM    = UTC
MEAN_ELEMENT_THEORY = SGP/SGP4

EPOCH          = 2025-10-26T20:00:01.000224
MEAN_MOTION    = 15.43982239
ECCENTRICITY   = .0001041
INCLINATION    = 53.1592
RA_OF_ASC_NODE = 198.5112
ARG_OF_PERICENTER = 109.5515
MEAN_ANOMALY   = 302.8200

EPHEMERIS_TYPE = 0
CLASSIFICATION_TYPE = U
NORAD_CAT_ID   = 65871
ELEMENT_SET_NO = 999
REV_AT_EPOCH   = 495
BSTAR          = -.5051E-1
MEAN_MOTION_DOT = -.2074605E-1
MEAN_MOTION_DDOT = 0

CCSDS_OMM_VERS = 2.0
CREATION_DATE  = 
ORIGINATOR     = 

OBJECT_NAME    = STARLINK-34108
OBJECT_ID      = 2025-223U
CENTER_NAME    = EARTH
REF_FRAME      = TEME
TIME_SYSTEM    = UTC
MEAN_ELEMENT_THEORY = SGP/SGP4

EPOCH          = 2025-10-26T18:09:42.852672
MEAN_MOTION    = 15.49331346
ECCENTRICITY   = .0001108
INCLINATION    = 53.1589
RA_OF_ASC_NODE = 198.8470
ARG_OF_PERICENTER = 94.0171
MEAN_ANOMALY   = 266.0965

EPHEMERIS_TYPE = 0
CLASSIFICATION_TYPE = U
NORAD_CAT_ID   = 65872
ELEMENT_SET_NO = 999
REV_AT_EPOCH   = 366
BSTAR          = .12979E-2
MEAN_MOTION_DOT = .72465E-3
MEAN_MOTION_DDOT = 0

CCSDS_OMM_VERS = 2.0
CREATION_DATE  = 
ORIGINATOR     = 

OBJECT_NAME    = STARLINK-35423
OBJECT_ID      = 2025-223V
CENTER_NAME    = EARTH
REF_FRAME      = TEME
TIME_SYSTEM    = UTC
MEAN_ELEMENT_THEORY = SGP/SGP4

EPOCH          = 2025-10-26T18:09:13.084416
MEAN_MOTION    = 15.49336429
ECCENTRICITY   = .0001158
INCLINATION    = 53.1591
RA_OF_ASC_NODE = 198.8442
ARG_OF_PERICENTER = 87.3237
MEAN_ANOMALY   = 272.7905

EPHEMERIS_TYPE = 0
CLASSIFICATION_TYPE = U
NORAD_CAT_ID   = 65873
ELEMENT_SET_NO = 999
REV_AT_EPOCH   = 366
BSTAR          = .1359E-2
MEAN_MOTION_DOT = .75945E-3
MEAN_MOTION_DDOT = 0

CCSDS_OMM_VERS = 2.0
CREATION_DATE  = 
ORIGINATOR     = 

OBJECT_NAME    = STARLINK-35425
OBJECT_ID      = 2025-223W
CENTER_NAME    = EARTH
REF_FRAME      = TEME
TIME_SYSTEM    = UTC
MEAN_ELEMENT_THEORY = SGP/SGP4

EPOCH          = 2025-10-26T18:10:12.431712
MEAN_MOTION    = 15.49335743
ECCENTRICITY   = .000114
INCLINATION    = 53.1590
RA_OF_ASC_NODE = 198.8490
ARG_OF_PERICENTER = 96.4296
MEAN_ANOMALY   = 263.6843

EPHEMERIS_TYPE = 0
CLASSIFICATION_TYPE = U
NORAD_CAT_ID   = 65874
ELEMENT_SET_NO = 999
REV_AT_EPOCH   = 366
BSTAR          = .12811E-2
MEAN_MOTION_DOT = .71524E-3
MEAN_MOTION_DDOT = 0

CCSDS_OMM_VERS = 2.0
CREATION_DATE  = 
ORIGINATOR     = 

OBJECT_NAME    = STARLINK-34688
OBJECT_ID      = 2025-223X
CENTER_NAME    = EARTH
REF_FRAME      = TEME
TIME_SYSTEM    = UTC
MEAN_ELEMENT_THEORY = SGP/SGP4

EPOCH          = 2025-10-26T16:35:49.894944
MEAN_MOTION    = 15.49341035
ECCENTRICITY   = .0000954
INCLINATION    = 53.1585
RA_OF_ASC_NODE = 199.1510
ARG_OF_PERICENTER = 109.4617
MEAN_ANOMALY   = 250.6495

EPHEMERIS_TYPE = 0
CLASSIFICATION_TYPE = U
NORAD_CAT_ID   = 65875
ELEMENT_SET_NO = 999
REV_AT_EPOCH   = 365
BSTAR          = .17326E-2
MEAN_MOTION_DOT = .97231E-3
MEAN_MOTION_DDOT = 0

CCSDS_OMM_VERS = 2.0
CREATION_DATE  = 
ORIGINATOR     = 

OBJECT_NAME    = STARLINK-34438
OBJECT_ID      = 2025-223Y
CENTER_NAME    = EARTH
REF_FRAME      = TEME
TIME_SYSTEM    = UTC
MEAN_ELEMENT_THEORY = SGP/SGP4

EPOCH          = 2025-10-26T18:08:13.759584
MEAN_MOTION    = 15.49334592
ECCENTRICITY   = .0001177
INCLINATION    = 53.1588
RA_OF_ASC_NODE = 198.8405
ARG_OF_PERICENTER = 96.1932
MEAN_ANOMALY   = 263.9211

EPHEMERIS_TYPE = 0
CLASSIFICATION_TYPE = U
NORAD_CAT_ID   = 65876
ELEMENT_SET_NO = 999
REV_AT_EPOCH   = 366
BSTAR          = .12256E-2
MEAN_MOTION_DOT = .68374E-3
MEAN_MOTION_DDOT = 0

